name,country,email,address,postalZip
Cullen Daniel,China,mauris@hotmail.net,1984 Integer Rd.,95878-128
Kylynn Mcneil,Philippines,fermentum.metus@google.couk,"Ap #576-6431 Risus, Avenue",242677
Hiram Johnson,New Zealand,blandit.enim.consequat@icloud.com,"P.O. Box 845, 2949 Malesuada St.",471368
Clio Gordon,Philippines,dui.quis.accumsan@google.com,8824 Dolor Ave,53065-615
Zachery Glover,Pakistan,in.hendrerit@hotmail.couk,2558 Et Road,86011
Lucas Weber,Singapore,vitae.purus@protonmail.edu,"P.O. Box 940, 3914 Ac Street",3451
Anthony Gutierrez,Ireland,tortor.nibh@google.com,Ap #762-5747 Nullam Road,359369
Yoshio Byrd,China,metus.facilisis@yahoo.com,184-3133 Nec Rd.,721708
Sigourney Jordan,Russian Federation,massa.non.ante@google.couk,"P.O. Box 467, 2471 Adipiscing Ave",16537
Fritz Kaufman,India,rhoncus.proin@google.net,8487 Suspendisse St.,6498 BQ
Dustin Hale,Austria,magnis@outlook.ca,"P.O. Box 606, 9952 Vitae Street",2431
Caleb Young,Italy,imperdiet.erat@protonmail.org,"P.O. Box 192, 1159 Nunc, Av.",B3Y 8P3
Latifah Harrison,Netherlands,nec.leo@google.ca,"P.O. Box 679, 9928 Consequat Avenue",2787 LT
Idona Cantrell,South Africa,nunc.risus@yahoo.org,902-3535 Molestie Street,713134
Carlos Mcgee,United Kingdom,ultrices.duis@yahoo.couk,409-1806 Arcu. Rd.,5651
Callie Gibson,Turkey,porttitor.scelerisque.neque@protonmail.edu,Ap #183-7388 Ligula Rd.,2524
Xena Herman,South Korea,suscipit@google.couk,"303-3702 Ut, St.",577555
Vivian Robertson,Ireland,amet.massa.quisque@aol.ca,"P.O. Box 828, 8804 Odio, Rd.",83671
Chaney Pate,Nigeria,cras.dictum@hotmail.couk,"P.O. Box 678, 7088 Integer St.",56-73
Alfreda Burgess,South Africa,cum.sociis@outlook.org,4938 Sit Rd.,741454
Willa Battle,Colombia,est@hotmail.edu,880-617 Metus. Avenue,6222-5814
Serina Buchanan,Brazil,a.dui@google.org,2437 Lorem. Av.,7174 UI
Hedda Wiggins,Belgium,eget.ipsum@aol.org,773-1694 Eu Avenue,NQ68 9RN
Chaim Webster,South Africa,adipiscing.ligula@outlook.ca,"Ap #310-3346 Laoreet, Avenue",3523-1861
Ethan Spence,New Zealand,placerat.augue@aol.com,832-8889 Lectus. Av.,52737
Risa Hopper,Russian Federation,semper.egestas.urna@google.couk,Ap #319-8001 Malesuada Ave,666677
Ciara Gillespie,Peru,vestibulum.lorem.sit@hotmail.net,509-8289 Nec Ave,73862
Ila Bush,France,dolor@outlook.couk,Ap #595-5730 Est Road,78228
Rhiannon Levine,China,sed.libero@protonmail.edu,439-2000 Elit Street,33340
Indigo Poole,United States,placerat.orci.lacus@yahoo.com,Ap #892-6009 Dictum Avenue,742823
Cruz Pollard,Philippines,semper.rutrum@yahoo.net,352-9252 Luctus. Av.,14832
Dominic Rice,Colombia,amet.diam@yahoo.ca,"P.O. Box 965, 9886 Lectus Av.",694718
Wang Wilcox,Australia,posuere.cubilia@protonmail.net,8843 Cursus Rd.,83426
Nichole Hurst,Colombia,orci.adipiscing@aol.net,816-6737 Ornare Avenue,4721
Colin Payne,Turkey,mus.aenean@aol.ca,456-1290 Sagittis Ave,447531
Palmer Stein,Mexico,mauris.a@aol.org,"P.O. Box 730, 5869 Rutrum Av.",323856
Eve Robbins,Colombia,vel.sapien.imperdiet@aol.ca,"P.O. Box 500, 4899 Mi. Rd.",85215
Maxwell Munoz,Australia,donec.est@hotmail.com,116-3726 Nascetur Rd.,6486
Bianca Bright,Sweden,ornare.placerat@yahoo.net,"P.O. Box 534, 4605 Porta Avenue",0313
Tanisha Beasley,Italy,a@icloud.edu,Ap #161-5397 Nisl. St.,52843
Zelda Vang,Canada,tellus.imperdiet@yahoo.com,Ap #927-3084 Pede. Av.,8173 AC
Charlotte Richmond,France,risus.varius@yahoo.org,Ap #233-9586 Amet St.,5580
Gil Chase,United Kingdom,eu.dui@outlook.edu,"6560 Tincidunt, Road",2612
Serina Griffin,Turkey,est.ac.mattis@google.edu,Ap #744-4828 Nulla Rd.,768886
Gareth Lamb,India,adipiscing@icloud.org,Ap #450-9645 Fames Rd.,91732
Inez Ball,South Africa,ornare.egestas.ligula@yahoo.org,9067 Ante St.,7412
Len Puckett,Canada,tempor.arcu@hotmail.couk,Ap #505-7247 Auctor Road,1332
Iris Gregory,Costa Rica,mauris@yahoo.net,384-9733 Duis St.,87-59
Wendy Cameron,Costa Rica,fermentum.convallis@google.com,464-5481 Urna Road,2078
Keegan Wilkinson,Colombia,tortor.integer.aliquam@hotmail.com,"P.O. Box 863, 5785 Et Ave",187686
Lenore Reyes,New Zealand,consequat@yahoo.net,9297 Ridiculus Rd.,54168-371
Carson Mason,Vietnam,penatibus.et@google.couk,"P.O. Box 840, 3452 Tellus, St.",2434
Carlos Barry,Costa Rica,cras.vulputate.velit@outlook.couk,Ap #338-6188 Nonummy Road,85929
Adam Chambers,India,mauris.nulla@google.edu,"P.O. Box 562, 1571 A Street",366568
Winter Gillespie,China,nulla.at.sem@yahoo.couk,"702-8544 Leo, Ave",63018
Dillon Cash,Indonesia,sociis.natoque@outlook.org,973-7178 Sed Road,71487
Merrill Webb,Colombia,cras@hotmail.edu,481-272 Non Avenue,1172 YX
Calista Kemp,Mexico,tempor.est@outlook.net,942-8901 Accumsan St.,303240
Aladdin Rowland,Belgium,est.ac@icloud.ca,Ap #108-5512 Vehicula Av.,0247
Imogene Cash,India,feugiat.metus.sit@google.edu,"P.O. Box 257, 7221 Hendrerit Ave",F1 3EZ
Dominic Eaton,Canada,sodales.nisi.magna@hotmail.org,663-1000 Neque St.,67275-931
Omar Martinez,Brazil,aliquam@aol.ca,Ap #537-950 Facilisis Avenue,S2L 4E4
Gil Fry,Germany,neque.nullam.ut@protonmail.couk,700-4153 Auctor. St.,0374
Karen Fitzgerald,South Korea,nunc.risus.varius@hotmail.net,829-211 Maecenas St.,68-410
Timothy Odom,Canada,pede.suspendisse.dui@outlook.edu,686-428 Morbi Rd.,30181287
Bruce Riley,Turkey,metus.vivamus@hotmail.net,969-9298 Luctus Rd.,7404
Byron Crawford,Ukraine,suscipit@protonmail.net,Ap #386-3095 Ultricies St.,835643
Cally Burch,India,sed.eu@google.ca,"P.O. Box 580, 6323 Mauris Avenue",63764
Craig Mcclure,Indonesia,non.dapibus@outlook.ca,"1977 Erat, Ave",7577
Xavier Terry,Spain,semper.cursus@aol.couk,"137-672 Enim, Road",423562
Jack Bright,France,purus.accumsan@outlook.net,731-4708 Vitae Rd.,9683
Wayne Hinton,Poland,cras.interdum@protonmail.couk,224-9174 Netus Av.,32522
Kirk Gould,Chile,amet.orci.ut@google.org,Ap #244-5535 Purus. Rd.,277151
Daphne Bright,Netherlands,pharetra.felis.eget@outlook.net,458-6983 Mauris. St.,77889
Nicholas Livingston,Belgium,vehicula.pellentesque@google.edu,7382 Magna St.,3370
Lael Kane,Pakistan,tempus.mauris@icloud.org,671-8394 Donec Rd.,122427
Hermione Mckay,Italy,nibh.lacinia@hotmail.net,180-3229 Proin Avenue,05774-75507
Elizabeth Burnett,South Korea,etiam.vestibulum@protonmail.org,Ap #715-9235 Luctus Road,J2 2SV
Quinn Curry,Nigeria,donec@icloud.couk,"P.O. Box 859, 4838 Est, Av.",05584
Rhona Puckett,Chile,elit@aol.org,Ap #639-2902 Quam Rd.,21-452
Cedric Short,Poland,venenatis.lacus.etiam@outlook.ca,Ap #679-4336 Egestas Road,3693-3768
Destiny Charles,France,ac.mattis@hotmail.edu,"340-3210 Non, Avenue",78757
Harlan Reilly,South Korea,semper.rutrum@aol.couk,"171-7537 Montes, Street",3173
Paul Kelly,Germany,nunc.quisque@protonmail.com,634-2193 Dolor. Ave,2453
Orla Gilbert,Netherlands,libero.dui.nec@outlook.com,3781 Nonummy Road,4307
Shay Gilbert,Vietnam,natoque@yahoo.org,"P.O. Box 769, 491 Tellus St.",13742
Hakeem Schwartz,Brazil,aliquet.vel@icloud.ca,650-5558 Fermentum Road,725957
Cole Barton,Norway,nulla.dignissim@yahoo.net,6460 Neque Road,2873
Alan Keller,Austria,a.arcu@yahoo.net,"P.O. Box 138, 5962 Diam. Street",55-15
Roth Hess,Belgium,mi.fringilla@yahoo.edu,7312 In Rd.,415935
Jena Massey,Turkey,gravida@outlook.ca,Ap #411-2185 Quis Rd.,0988
Liberty Walker,Pakistan,sapien.molestie@yahoo.edu,296-7974 Pellentesque St.,65391
Mia Webster,New Zealand,at.lacus@icloud.net,7034 Dictum. St.,3268
Trevor Kerr,Colombia,faucibus.ut@yahoo.net,4439 Nibh Rd.,60215-51826
Judith Summers,Netherlands,nisl.nulla@hotmail.org,"P.O. Box 796, 3749 Eu Ave",97768-613
Levi Payne,Netherlands,quis@protonmail.couk,"P.O. Box 890, 3376 Mi St.",982881
Fiona Cabrera,Indonesia,scelerisque.dui@icloud.com,"P.O. Box 536, 8729 Mauris Rd.",56486
Kasimir Whitney,China,id.enim.curabitur@icloud.org,Ap #269-127 Nunc. Rd.,386425
Ila Moon,United States,eu.ligula.aenean@protonmail.couk,Ap #126-5676 Lectus. Road,4230
Lars Foster,Germany,tincidunt@icloud.couk,"P.O. Box 229, 7295 Egestas Rd.",03-945
Tatyana Dyer,New Zealand,vestibulum@icloud.org,"P.O. Box 188, 3323 Cursus. Rd.",48-762
Lisandra Mccoy,Germany,sapien.cursus.in@hotmail.org,Ap #429-8580 Nulla St.,551482
Kirby Ewing,United Kingdom,tellus@protonmail.com,9452 Nunc Av.,96-075
Bertha Hamilton,Spain,urna.nunc@google.couk,Ap #745-3731 Cras St.,507158
Natalie Brock,United States,pharetra.nam@google.com,121-3313 Fusce Av.,53818
Merrill Franks,Austria,aenean@icloud.couk,"193-2785 Vel, St.",12703
Kiona Mcdaniel,Netherlands,erat@hotmail.org,432-3724 Primis Rd.,561794
Colby Macdonald,Italy,volutpat.nulla@outlook.com,"P.O. Box 619, 3658 Ac Rd.",31762951
Ina Koch,Poland,sit@protonmail.com,Ap #458-3775 Adipiscing Road,8875
Rigel Huber,Belgium,ligula.elit@google.ca,634-1377 Nunc Ave,20618
Audrey Travis,Nigeria,integer.id@aol.edu,936-3813 Rutrum. Avenue,6844
Britanney Yates,Mexico,dui@yahoo.com,506-8546 Malesuada Rd.,896945
Wallace Holman,Nigeria,erat@outlook.net,"P.O. Box 689, 6191 Cursus, Avenue",245662
Armand Strickland,Mexico,sed.nec@aol.ca,Ap #418-7266 Molestie Street,535114
Logan Ramsey,India,facilisis@protonmail.com,Ap #523-2831 Lectus St.,16284
Isaac Little,Chile,id.enim@google.couk,"408-8546 Quam, St.",165257
Josephine Gomez,China,nunc.quis.arcu@icloud.edu,733-5108 Orci Road,1936
Unity Dorsey,Peru,nec.cursus@hotmail.org,3285 Erat Rd.,4056
Byron Booth,Brazil,magna.cras@hotmail.ca,528-6473 Dictum. Avenue,262323
Raphael Cohen,Philippines,et.tristique@aol.net,820-6818 Maecenas Avenue,LI2 1XI
Adrian Bolton,France,in.sodales@protonmail.edu,"P.O. Box 207, 6805 Ac Av.",583815
Melyssa Ford,Mexico,faucibus@aol.couk,"Ap #690-7875 A, Rd.",12774-27491
Nola Sullivan,Belgium,a.auctor@protonmail.ca,7942 Lectus Av.,50115
Wyatt Ryan,France,ridiculus@protonmail.org,Ap #641-1615 Sed St.,352384
Karina Bradford,Turkey,rutrum@yahoo.com,"P.O. Box 252, 9007 Sed, St.",6627-5116
Caryn Hill,Ireland,metus@icloud.com,"Ap #287-3177 Mauris, Rd.",58334
Thane O'donnell,United Kingdom,velit.pellentesque@protonmail.org,888-1272 Tempor Rd.,58V 5Z9
Illana Fischer,Colombia,molestie.in@icloud.com,Ap #820-2243 Ante. St.,2255
Bryar Langley,Philippines,dignissim@outlook.ca,"Ap #792-384 Et, St.",48212
Blythe Strong,India,nonummy.ac@hotmail.org,526-2066 Ante Ave,68111
Russell Gardner,Spain,mauris.ut@protonmail.com,"P.O. Box 536, 9514 Vulputate Road",53389
Hunter Acosta,United States,mauris.sit@outlook.org,"P.O. Box 137, 6209 Mi St.",482682
Kasper Dillon,Peru,in.faucibus.orci@protonmail.org,518 Libero. Avenue,377424
Lana Saunders,Peru,nunc.sed.libero@yahoo.edu,"P.O. Box 666, 3138 Posuere, Street",2162 PU
Cade Hebert,United Kingdom,dui.in@hotmail.couk,Ap #994-4067 Interdum Ave,3625
Wendy Gardner,Canada,a@icloud.edu,"373-8561 Lorem, Avenue",1571
Irma Nichols,Netherlands,lorem.eget.mollis@google.com,Ap #706-9231 Proin Rd.,248787
Brock Marshall,Italy,maecenas@aol.ca,"P.O. Box 938, 1709 Etiam Street",273712
Anjolie Roy,Ireland,eu@hotmail.couk,Ap #674-5184 Cubilia Ave,48-667
Drew Harrell,Austria,ipsum.primis@aol.com,Ap #609-1114 Ultricies Av.,77913
Kaseem Farmer,United States,sit.amet@yahoo.com,780-7277 Feugiat. Av.,26185
Lester Brennan,Vietnam,natoque.penatibus@protonmail.org,"880-7457 Erat, St.",4114
Zeus Finch,France,proin.eget.odio@icloud.com,Ap #390-3169 Facilisis. Ave,5518-6010
Aimee Cox,Pakistan,ante@icloud.ca,1808 Arcu Avenue,71323
Victoria Parrish,Belgium,nulla@icloud.com,Ap #364-5907 Est. St.,453372
Leilani James,Italy,velit@yahoo.ca,1633 Eu Ave,28-78
Wendy Madden,Poland,ultricies@hotmail.com,7995 Ipsum Street,74724-318
Fitzgerald Perez,India,dolor.sit.amet@outlook.ca,274 Suspendisse Rd.,19054
Victor Ferguson,Nigeria,adipiscing.enim@protonmail.ca,Ap #952-7282 Auctor St.,76-57
Cheyenne Terrell,Vietnam,molestie.sed.id@protonmail.net,"9997 Amet, Avenue",8079-4746
Rahim Morrison,United Kingdom,arcu.et@icloud.net,"838-3144 Convallis, St.",4453
Nigel Lowery,Ukraine,massa@yahoo.ca,408-234 Eleifend Rd.,2321
Davis Mooney,France,netus@protonmail.com,"P.O. Box 343, 5765 Felis Rd.",581695
Raven Mendez,France,ut.odio.vel@outlook.net,"P.O. Box 594, 1100 Porttitor Ave",36464
Jasmine Small,Turkey,imperdiet.erat@icloud.edu,4137 Eget St.,334583
Hu Valenzuela,Philippines,consectetuer@google.ca,681-2861 Suspendisse Avenue,126584
Karina Ortega,Netherlands,donec.non@outlook.com,"Ap #831-4771 Non, St.",23866
Barry Thompson,Sweden,gravida.molestie@google.ca,151-8723 Ipsum St.,694352
Naida Alexander,Italy,volutpat.nulla@icloud.net,537-6581 Donec Ave,1574
Vaughan Grimes,Poland,lorem@outlook.edu,Ap #503-7928 Magna. Av.,4467
Ruby James,Canada,eu.dolor.egestas@aol.net,Ap #100-1453 Scelerisque Rd.,4072
Ainsley Manning,France,aliquam@outlook.edu,Ap #283-284 Elit Road,466671
Jermaine Lucas,Indonesia,nullam.scelerisque@outlook.org,"P.O. Box 536, 2176 Congue. St.",0072-7327
Quamar Walker,France,eleifend@yahoo.net,779-7391 Neque. Rd.,187954
Philip Austin,Vietnam,congue@protonmail.couk,"P.O. Box 510, 6519 Cubilia Ave",27876-52322
Carly Kerr,India,nunc@icloud.net,1299 Nisl Street,16578
Kylan Battle,Australia,nunc.ullamcorper@hotmail.com,861-149 Euismod St.,9838
Adrian Woodward,India,proin.dolor@google.ca,316-5178 Posuere Av.,A2X 0E4
Cheyenne Kelly,Singapore,dolor.elit@hotmail.org,"597-5992 Ornare, Rd.",716516
Karen Drake,United Kingdom,morbi.tristique@hotmail.edu,Ap #709-1949 Morbi Street,22-426
Branden Barlow,United Kingdom,orci.sem@outlook.com,Ap #695-9754 Non Rd.,22111-96451
Petra Holloway,Norway,fermentum@protonmail.com,669-968 Nibh Street,436333
Talon Zimmerman,United Kingdom,imperdiet.nec@protonmail.couk,"P.O. Box 542, 6972 Pede Avenue",68222-21655
Quinn Cortez,Nigeria,arcu@outlook.edu,875-1483 Massa. Ave,51316
Aiko Burke,India,quis.accumsan.convallis@hotmail.com,"P.O. Box 224, 7089 Lorem Rd.",68923
Aurelia Parker,Brazil,volutpat@outlook.couk,Ap #517-1749 Tellus Av.,13112
Jenna Vega,Italy,dictum.placerat@outlook.org,2807 Molestie Av.,GD1B 3GV
Leonard Macias,South Africa,montes.nascetur.ridiculus@protonmail.net,Ap #388-4410 Enim Avenue,375242
Alfreda Harrison,India,purus.in.molestie@yahoo.couk,"Ap #178-4571 Ut, Street",3413 TN
Francis Beck,Turkey,suspendisse.dui.fusce@outlook.ca,"P.O. Box 243, 4717 Est St.",7318 TS
Hanae Trevino,South Korea,mattis.ornare@aol.org,8767 Congue. Ave,13222
Tamekah Bruce,Ukraine,non.massa@yahoo.ca,515-1105 Arcu. Rd.,6411 KB
Deirdre Harmon,Poland,cursus.non.egestas@outlook.net,877-7016 Ornare Street,122062
Forrest Stuart,United Kingdom,varius.et@hotmail.ca,"P.O. Box 679, 2845 Tristique St.",5125
MacKensie Hale,Indonesia,natoque.penatibus.et@aol.org,708-1866 Enim. Av.,28901
Abra Fernandez,Indonesia,cursus.vestibulum@hotmail.org,487-8815 Nec St.,9982
Theodore Reid,Turkey,felis.purus.ac@outlook.org,528-2207 Volutpat. Rd.,775441
Jillian Cooley,Vietnam,est.mauris.rhoncus@yahoo.org,138 Mauris Av.,26A 3X7
Kenyon Bruce,Colombia,elementum.at@icloud.org,2329 Pharetra Ave,7586
Ariana Patel,Colombia,dui.cras@google.net,720-9527 Amet St.,234274
Rhiannon Pittman,Netherlands,in.lorem@yahoo.net,849 Pharetra Street,325435
Natalie Hayes,Canada,augue.id@hotmail.org,898-1246 Dolor Av.,14579
Aiko Macdonald,Peru,vestibulum.accumsan@icloud.org,213-7591 Sociosqu Rd.,0772
Ulysses Alston,Vietnam,sed@icloud.com,"495-3500 Ornare, Avenue",27192
Francesca Roberson,Pakistan,accumsan.neque@hotmail.com,1823 Quisque Rd.,58104
Yuli Pugh,Belgium,euismod.et@icloud.org,"P.O. Box 126, 8530 Vel Rd.",8785
Ezra Briggs,Norway,feugiat.nec@hotmail.org,Ap #393-5110 Nullam Street,73352
Samson Blackwell,China,metus.vivamus@hotmail.org,906-2358 Ligula. Ave,72247
Amir Leon,Spain,tellus.lorem@google.edu,172-3209 Aliquam Rd.,8978
Drake English,Norway,sodales@outlook.com,2147 Litora St.,22877
Ciaran Mccall,Ireland,at.iaculis@yahoo.net,"P.O. Box 959, 6867 Nibh Av.",9777
Lance Todd,France,nullam@protonmail.com,"Ap #756-862 Iaculis, Avenue",2407
Myra Lane,Netherlands,libero.at@yahoo.org,291-3927 Nulla Street,7660
Rana Allen,Austria,hendrerit@google.couk,"P.O. Box 931, 2091 Volutpat Av.",484572
Lucas Young,Indonesia,libero.mauris@google.edu,119-7282 Fringilla. Ave,126517
Chiquita Mclaughlin,Singapore,quis.turpis.vitae@google.org,Ap #539-6988 Nunc. Street,WR5L 2WD
Eleanor Osborn,Peru,lacinia.orci@icloud.ca,Ap #586-4757 Nunc St.,318738
Sybill Bowen,Nigeria,odio.vel@aol.ca,488-6986 Fames Street,91228
Xander Pittman,Vietnam,enim.non@hotmail.net,"P.O. Box 565, 1645 Ipsum St.",13527
Chloe Harrison,Netherlands,facilisis.non@icloud.org,386-3922 Nibh. St.,24685
Aaron Langley,Sweden,fringilla.purus@aol.net,2305 Quis Avenue,65351-673
Dustin Branch,United States,leo.in@yahoo.ca,283-4578 Et Rd.,82670
Keith Stein,Brazil,magna.praesent@hotmail.couk,5568 Morbi Road,7278
Carl Hart,Chile,risus@icloud.org,840-5943 Parturient Rd.,K1 8KS
Solomon Carpenter,Canada,dolor.quam@protonmail.org,"P.O. Box 924, 1899 Aenean Street",680423
Cody Eaton,Mexico,interdum@google.couk,"P.O. Box 783, 6985 Mauris Rd.",07726
Gwendolyn Carney,Germany,gravida.non@protonmail.net,6561 Elementum St.,39518
Steven Gardner,Ireland,a@hotmail.ca,Ap #933-9383 Dui Ave,62-885
Jaime Hobbs,United Kingdom,lectus@hotmail.org,"P.O. Box 182, 7173 Orci St.",72197
Rose Wolfe,Italy,morbi@hotmail.net,969-9231 Aptent Ave,73347
Wendy Frank,Pakistan,euismod.enim@outlook.edu,Ap #495-6843 Hendrerit Ave,625575
Grace Dotson,Indonesia,augue.eu.tempor@hotmail.edu,Ap #636-6252 Dapibus Avenue,58582-534
Hannah Dominguez,Netherlands,ipsum.primis@protonmail.couk,Ap #918-7195 Vivamus Street,16830
Kaitlin Ramsey,France,lorem.eget.mollis@yahoo.com,473-7751 Vitae Street,7369 LU
Portia Stark,Peru,est@protonmail.edu,"880-8526 Sed, Rd.",6479
Zahir Estrada,Italy,augue.scelerisque@yahoo.net,164-6728 Nulla St.,1222
Halla Schwartz,France,cras@hotmail.couk,Ap #617-1564 Cras St.,K3 1BE
Pandora Burgess,Brazil,pharetra.nibh@aol.com,8957 Sociosqu Ave,483626
Jeremy Wright,France,velit.aliquam@google.ca,Ap #567-4376 Vitae St.,83875
Elliott Mack,Canada,donec@yahoo.org,709-1445 Nisi. Av.,51607
Ali Freeman,Indonesia,ligula.aenean@google.edu,5565 Commodo Av.,665676
Daniel Burt,India,vitae.odio.sagittis@yahoo.org,Ap #862-4112 Risus. Road,7351
Jasmine Haley,Netherlands,sodales.purus.in@hotmail.com,Ap #566-7505 In Ave,906842
Jin Emerson,Netherlands,convallis@hotmail.org,Ap #454-5984 Molestie Rd.,49-644
Mira Scott,Philippines,eu.nibh@protonmail.edu,Ap #811-5305 Lacus. St.,324721
Brittany Dalton,Russian Federation,mollis.nec@icloud.ca,977-9754 Odio. Road,21414
Yolanda Ferguson,Spain,sollicitudin.a@yahoo.ca,903-1511 Urna. Av.,12382
Cassidy Washington,Chile,dapibus.rutrum@protonmail.org,895-6890 Mi Ave,2237
Neville Ross,Austria,non.hendrerit@outlook.com,281-3876 Dui Rd.,1825
Alvin Williamson,Costa Rica,diam.dictum@outlook.net,725-5986 Nunc St.,2115
Akeem Parks,Ukraine,ac.turpis@yahoo.couk,"6124 A, Street",4192
Victoria Arnold,Costa Rica,sed.id@hotmail.edu,Ap #204-7731 Venenatis Street,57-58
Jorden Morse,Philippines,ipsum.primis@outlook.com,6541 Non Ave,59789
Brady Lambert,Canada,justo@icloud.com,"P.O. Box 269, 9498 Vitae Rd.",821256
Noble Hogan,Poland,vestibulum.neque@icloud.couk,158-3445 Integer Road,07899
Rajah Morris,Pakistan,dui.nec.urna@google.couk,"288-3574 Lorem, Road",85573-08576
Ivan Harrington,Peru,quis.diam@icloud.net,Ap #929-2243 Sagittis Ave,94832
Macaulay Thomas,Austria,vitae.diam@protonmail.edu,188-3940 Venenatis Rd.,6382
Clark Finch,Canada,lectus@google.couk,"Ap #434-5857 Amet, Street",37349
Wilma Alford,Indonesia,pede.sagittis.augue@hotmail.org,"P.O. Box 906, 5969 Scelerisque Av.",401226
Colt Moses,Turkey,blandit.viverra@google.ca,"P.O. Box 452, 7655 Ullamcorper Road",85145
Gil Case,Belgium,sit.amet@yahoo.net,Ap #288-6092 Adipiscing St.,7720 AM
Dustin Kane,United Kingdom,feugiat.tellus@aol.ca,Ap #594-2632 Porta Rd.,33249
Rebekah Miranda,Colombia,eu.enim@hotmail.net,604-7455 Scelerisque St.,249881
Damon Gray,Spain,curabitur.egestas@yahoo.com,Ap #940-2814 Laoreet Rd.,268646
Wade Nichols,United States,eros.proin@aol.com,"P.O. Box 506, 5829 Suspendisse Road",55833
Amery Jefferson,Russian Federation,pulvinar.arcu@protonmail.net,Ap #954-2192 Tellus. St.,80-684
Inga Roy,Peru,ut.nisi@hotmail.couk,"Ap #739-6742 Tellus, St.",7001
Ferris Bates,Austria,enim.etiam@icloud.com,853-2815 Dui Street,14-39
Gavin Gates,Singapore,cursus.a@yahoo.net,"600-9386 Magna, Rd.",687857
Lana Pitts,Indonesia,justo.proin@icloud.org,5132 Pede Av.,253171
Mariam Hancock,Norway,risus.at@outlook.couk,977-3765 Vivamus Road,4841
Timon Lindsay,Philippines,non@outlook.com,Ap #604-7653 Est Rd.,743145
Lillian Foreman,Ireland,est.ac@hotmail.net,4626 Ut Rd.,72804
Aidan Mcdowell,Mexico,laoreet.ipsum.curabitur@outlook.net,7673 Dolor Rd.,07752
Ayanna Vasquez,Singapore,donec.consectetuer@aol.couk,732-9041 Arcu St.,4807
Griffin Matthews,Colombia,mi.pede@google.org,291-2288 Mauris St.,Y7S 1N8
Castor Cantrell,France,massa@yahoo.ca,Ap #470-9565 Volutpat Ave,3285
Anjolie Bernard,Netherlands,faucibus.morbi@outlook.couk,247-2843 Habitant Road,17-53
Thor Francis,Canada,arcu.sed@hotmail.edu,"P.O. Box 760, 7485 Morbi St.",688844
Kylie Lowe,France,convallis.ligula@google.com,Ap #404-6874 Lobortis Road,5445
Jin Barber,Ukraine,in@protonmail.couk,"P.O. Box 983, 3848 Nam St.",2849
Madison Perez,Austria,enim.etiam.gravida@icloud.net,266-6307 Est Rd.,35776
Laith Austin,South Korea,pellentesque.tincidunt@outlook.org,5996 Est. Av.,51-933
Bryar Freeman,Belgium,id.erat@yahoo.couk,2787 Nisi Rd.,26087
Zahir Vance,China,sollicitudin.commodo.ipsum@outlook.edu,"P.O. Box 291, 3836 Non Rd.",54367
Merritt Mclaughlin,Australia,semper@outlook.edu,321-2144 Purus. Av.,B4S 2H3
Patience Holloway,Sweden,mattis.semper@yahoo.com,Ap #652-1360 Velit St.,24853
Reagan Meyer,Vietnam,ornare.facilisis.eget@hotmail.com,"P.O. Box 153, 1132 Quam Rd.",65143-489
Sebastian Mayo,South Africa,euismod.mauris@hotmail.com,9421 Neque. Avenue,55126-45406
Chantale Fletcher,Pakistan,id@yahoo.org,Ap #726-7638 Pellentesque Av.,33696
Ariana Gamble,Philippines,penatibus.et@google.org,264-1880 Lacus. Rd.,84-549
Michael Kane,Australia,praesent.luctus@yahoo.edu,7073 At Street,76-14
Alice Ayala,Germany,amet.consectetuer.adipiscing@aol.org,907-7482 Est St.,64533
Cole Steele,Turkey,ac@icloud.net,8257 Arcu Avenue,376791
Iola Welch,Netherlands,ac.tellus@protonmail.com,Ap #885-6157 Eget Rd.,663332
Madeson Bean,United States,lorem.lorem@google.net,Ap #684-6339 Sed Road,251604
Keegan Mcdonald,Spain,a@outlook.couk,582-9381 Magna. Road,52867-134
Blake Little,Poland,orci.ut@aol.org,4279 Rhoncus. Av.,879687
Neve Miles,Turkey,at@hotmail.com,4667 Amet St.,68-248
Isaiah Reynolds,Singapore,risus.donec@google.org,434-6105 Adipiscing Rd.,491991
Fuller Fowler,Canada,rutrum.fusce@icloud.couk,"830-6593 A, Rd.",16681
Evangeline Stewart,Costa Rica,nulla.integer@outlook.org,5970 Lorem Rd.,752383
Nathan Mueller,Vietnam,a.aliquet@aol.net,"P.O. Box 912, 6832 Hendrerit Rd.",66411-432
Wylie Hood,Germany,mauris.sagittis.placerat@yahoo.couk,336-1124 Vitae Rd.,J1V 1S5
Lawrence Burt,Canada,vitae.aliquam@yahoo.couk,900-8444 Mollis. Ave,5291
Jermaine Vaughan,South Africa,malesuada.fringilla.est@icloud.com,Ap #638-4235 Velit Road,7118
Malachi Downs,Italy,natoque.penatibus.et@google.com,232-9563 Sit St.,483376
Clarke Yang,Indonesia,tempus.non@aol.ca,745-6685 Mauris Ave,4647
Zephania Todd,India,eget@google.com,719-7365 Risus Road,23537
Zena Rowland,Indonesia,ipsum@protonmail.ca,"P.O. Box 829, 6316 Sed Rd.",24383
Brody Warner,Peru,egestas@hotmail.ca,"P.O. Box 157, 8273 Tincidunt Street",439783
Megan Battle,Nigeria,mi.aliquam.gravida@outlook.couk,742-8980 Suspendisse Street,47945-73460
Jaime Bruce,Netherlands,lectus.pede@google.ca,Ap #155-7453 Sit Rd.,484902
Maggy Bonner,Sweden,nec.euismod@outlook.net,"Ap #196-8747 Leo, Avenue",494235
Calvin Webb,Costa Rica,facilisi.sed.neque@hotmail.couk,"P.O. Box 983, 2573 Laoreet St.",33963
Robert Wilkerson,Costa Rica,vitae.orci@icloud.com,Ap #353-1273 Vestibulum Rd.,94814
Keegan Miller,Peru,et.magnis.dis@aol.org,Ap #520-8898 Nulla Av.,8143
Odysseus Wiggins,India,risus.quis.diam@protonmail.org,615-8532 Accumsan Ave,7351
Price Duffy,India,mauris.integer@hotmail.net,Ap #331-7140 Purus Ave,G5S 2L2
Beatrice Stanton,France,lorem.sit@icloud.ca,Ap #373-1773 Ad Rd.,864759
Abdul Simpson,New Zealand,dolor.elit@yahoo.com,255-5539 Aliquam St.,S5L 6L4
Priscilla Riggs,Norway,pulvinar.arcu.et@yahoo.net,Ap #488-3157 Gravida. Rd.,8063
Quentin Blair,Indonesia,amet.risus.donec@google.couk,"Ap #427-1226 At, St.",27384
Nicholas Lancaster,Brazil,sociis.natoque.penatibus@outlook.com,Ap #613-6994 Aliquam Street,81656
Yoko Adams,Spain,placerat.velit@google.net,"P.O. Box 421, 2339 Quisque Av.",2912
Aimee Fox,Peru,ut@hotmail.net,"P.O. Box 639, 1921 At Rd.",0956-7563
Arsenio Anthony,Chile,dictum@google.org,"1602 Ornare, Road",7753 LU
Imani Estrada,China,nullam@google.edu,Ap #533-1807 Per Rd.,22232
Kimberly Joyner,Netherlands,ad.litora@yahoo.couk,710-7501 Lobortis Av.,75747
Sacha Cook,Netherlands,justo.proin@yahoo.org,Ap #974-4294 Egestas Avenue,09856
Thomas Holcomb,Italy,bibendum.donec@outlook.org,Ap #678-5527 Et Street,12063
Lev Blanchard,Austria,turpis@outlook.couk,3495 Condimentum. Street,8253
Devin Yang,Russian Federation,at@yahoo.org,4086 Non Road,88424
Rhoda Hooper,Australia,duis.sit@icloud.com,Ap #763-6390 Duis Rd.,22735-213
Ivan Wilkerson,Pakistan,donec@protonmail.edu,549-346 Tempor St.,831627
Helen Logan,United States,praesent.interdum@hotmail.com,"P.O. Box 119, 448 Condimentum. St.",03831
Mikayla Hahn,Belgium,velit@outlook.couk,Ap #509-4221 Nec Rd.,8254
Lacota Finch,Turkey,consequat.nec@hotmail.org,Ap #977-823 Tristique Ave,1660-1257
Scarlett Powell,Poland,ultrices.posuere.cubilia@icloud.edu,Ap #354-251 Non St.,1836
Alden Howe,Italy,consectetuer@outlook.net,6850 Lectus Rd.,18170
Briar Hayden,Sweden,duis@icloud.couk,355-4480 Morbi Av.,6570
Michelle Craft,New Zealand,bibendum.sed@yahoo.com,Ap #390-450 Vitae Rd.,68116
Jin Swanson,Russian Federation,porta.elit.a@google.edu,"P.O. Box 405, 6768 Consectetuer Avenue",89587-949
Randall Faulkner,China,tellus.faucibus@yahoo.couk,364-4482 Mattis Av.,456861
Emerson Ashley,Ukraine,ornare.fusce@yahoo.ca,731-4181 Nulla. St.,444155
Uta Briggs,Mexico,nulla.vulputate.dui@hotmail.net,344 Cum Ave,445650
Sydnee Dennis,Peru,sapien@yahoo.edu,660-9362 Amet Avenue,25521-14439
Kylie Tanner,Russian Federation,cursus.vestibulum.mauris@protonmail.net,330-4957 Elit St.,6556
Alan Stevenson,Norway,tristique.aliquet.phasellus@google.edu,7401 Varius. Rd.,3913-3416
Erich Fields,Netherlands,sociosqu@google.net,426-9052 Cum Street,37379
Stella Leach,Costa Rica,risus@google.edu,6334 Mauris St.,6230
Vaughan Fisher,Italy,metus.urna@icloud.com,Ap #341-384 Tempus Rd.,14138
Katelyn Phelps,Ukraine,libero@icloud.couk,572-4622 Donec Av.,423227
Preston Frank,Ukraine,faucibus.orci@hotmail.org,"2847 Eget, Road",75318
Ezra Mayer,Colombia,vel.lectus.cum@hotmail.net,658-1698 Diam Rd.,71036-00464
Kathleen Ellis,Poland,nullam.lobortis@yahoo.couk,761-9727 Duis Av.,5748
Kyra Stokes,Philippines,nonummy.ac@aol.edu,"P.O. Box 283, 3289 Dictum Rd.",254435
Prescott Walton,Ireland,mauris.id.sapien@icloud.edu,Ap #360-9990 Auctor Avenue,652437
Katelyn Maxwell,South Africa,elit.nulla@outlook.com,967-4240 In Road,1323-7936
Fritz Ross,Peru,dui.nec.tempus@hotmail.ca,"268-1717 Montes, Rd.",48384
Salvador Jenkins,Singapore,eu.odio@icloud.edu,Ap #516-9279 Mauris Av.,1737
Signe Nieves,Canada,felis@icloud.org,Ap #641-2272 Consectetuer Rd.,18052
Brooke Moore,Brazil,mollis.integer.tincidunt@google.org,"P.O. Box 942, 7652 Nam St.",7360
Wade Hess,South Korea,tincidunt.nunc@icloud.couk,738-5222 Mi Avenue,237956
Rogan Gates,Canada,ac@icloud.org,"P.O. Box 955, 4325 Integer Ave",12675
Charity Compton,South Africa,nunc.ullamcorper@hotmail.org,732-5230 Venenatis Rd.,875467
Bradley Aguirre,Nigeria,lorem.eget.mollis@aol.ca,383-9006 Tincidunt Ave,78009
Kellie Glenn,Spain,ac.turpis@outlook.org,325-1253 Viverra. Road,08624
Naomi Mendoza,South Africa,cubilia.curae@aol.edu,161-2696 Cursus Avenue,839995
Vance Ortiz,Sweden,nec.malesuada@google.com,Ap #592-1490 Non St.,8302 WN
Wynter Cardenas,Poland,non@protonmail.couk,2036 Neque St.,739769
Wayne Parker,Poland,pede.nunc@yahoo.net,538-3820 Auctor Avenue,78140
Keaton Thomas,Russian Federation,etiam@google.edu,"P.O. Box 401, 5291 Dignissim Road",410518
Ivory Ellison,Germany,consequat.auctor@outlook.edu,525-1777 Faucibus Street,9152
Miranda Prince,Vietnam,lobortis.ultrices@yahoo.ca,683-8258 Velit Rd.,53331
Caesar Small,Philippines,fusce.dolor.quam@protonmail.net,119-601 Et Avenue,50814
Nayda Hartman,Norway,nam.ligula.elit@aol.edu,"P.O. Box 602, 3406 Suspendisse Road",44-674
Nina Bowen,South Korea,scelerisque.scelerisque.dui@icloud.org,894-2197 Eu Rd.,4486
Keelie Wynn,Chile,magnis.dis@aol.ca,7633 Quis Avenue,306639
Scott Leblanc,Austria,auctor.vitae.aliquet@protonmail.com,Ap #521-1469 Duis Rd.,84453
Jenna Nash,Canada,odio.tristique@aol.ca,Ap #353-8477 Integer St.,208676
Winter Burton,Sweden,nibh@google.net,5950 Auctor Road,67553
Connor Reed,Australia,elementum@yahoo.couk,Ap #570-889 Porttitor Street,42622
Carolyn Ford,Australia,integer.aliquam@aol.net,Ap #465-1291 Turpis Avenue,46689
Raven Sargent,Austria,orci.luctus.et@icloud.ca,Ap #183-753 In Rd.,141157
Hasad Benson,Philippines,non@hotmail.ca,145-7926 Orci Rd.,141273
Fredericka Blankenship,Peru,donec.nibh.enim@aol.org,897-9898 In Avenue,18-85
Ahmed Orr,South Africa,mauris.vestibulum@hotmail.net,874-6000 Lectus St.,22437
Michelle Vazquez,Philippines,euismod.est.arcu@icloud.couk,"P.O. Box 640, 1186 Magna. Rd.",38247
Signe Conner,Sweden,sed.dictum@icloud.net,1533 Lobortis Rd.,23562
Myles Gutierrez,Ireland,enim.etiam@icloud.couk,1122 Mauris Street,614467
Cole Kelley,Ukraine,tellus.faucibus@protonmail.ca,6241 Parturient Ave,34546137
Ivory Cooke,Sweden,sed.malesuada@google.edu,713-6218 Augue St.,153335
Wade Rollins,Vietnam,diam.lorem.auctor@google.ca,187-5870 In Rd.,624584
Quinn Spencer,Germany,adipiscing.ligula@yahoo.edu,"715-2572 At, Ave",282920
Malik Boyer,South Korea,facilisis.non.bibendum@icloud.org,"P.O. Box 522, 6062 Velit. St.",568849
Sybil Atkinson,Poland,quis.diam@google.net,Ap #134-3653 Nec Avenue,93846
Eaton Hatfield,Poland,scelerisque.neque@icloud.ca,740-8570 Lectus Av.,1755-1450
Kenneth Patel,United States,in.hendrerit@protonmail.net,Ap #131-1878 Congue. St.,4850
Idona Owens,Brazil,lobortis.mauris.suspendisse@yahoo.couk,Ap #903-8622 Nibh Ave,232368
Magee Park,Italy,orci.lobortis@google.ca,"767-4995 Eget, St.",215674
Mara Byers,Peru,tempus@hotmail.ca,Ap #440-5392 Eget St.,6424 VX
Jeremy Parrish,Australia,nulla.ante@google.edu,580-9020 Convallis Rd.,70914
Karleigh Love,Costa Rica,quis@google.com,Ap #228-5791 Penatibus Street,611277
Christian Rowe,France,diam@aol.com,"P.O. Box 594, 3271 Ante Ave",87863
Lilah Pearson,Russian Federation,duis.volutpat@outlook.couk,335-6345 Sagittis Rd.,31-796
Sharon Bentley,United States,rutrum.lorem@outlook.edu,"P.O. Box 449, 602 Elit. Avenue",453687
Xanthus Wagner,United States,blandit.enim.consequat@hotmail.org,953-2370 Duis Street,L5X 8N8
Dolan Holcomb,Italy,nunc@google.couk,Ap #437-6917 Aenean Ave,7873
Tyler Roberson,Belgium,malesuada.vel.venenatis@icloud.couk,6954 Sed Av.,83845
Harding York,Poland,quisque.varius@yahoo.net,9752 Sagittis St.,6311
Ivory Goff,Germany,eget@aol.org,"P.O. Box 155, 8094 Et Rd.",548812
Harriet Sanders,Indonesia,cursus.a@aol.edu,"P.O. Box 505, 6611 Nibh. Av.",685657
Prescott Noel,Chile,bibendum.sed.est@hotmail.com,9887 Dui Av.,1447
Ayanna Leon,Peru,magna.ut@icloud.couk,609-9139 Quisque Rd.,643577
Martina Newton,South Korea,non@aol.ca,Ap #586-7333 Magna Rd.,7865
Thane Richardson,Sweden,suspendisse.sed@icloud.ca,"P.O. Box 139, 4699 Libero. St.",34-243
Ciaran Kerr,South Korea,ligula.elit@icloud.edu,"Ap #639-168 Eu, Rd.",41330
Leroy Mosley,Ireland,facilisis.magna.tellus@hotmail.net,Ap #314-4143 Iaculis St.,06595
Wade Delacruz,Ireland,sit@hotmail.net,265-4902 Aliquam Avenue,681221
Chelsea Collier,Costa Rica,dictum.sapien.aenean@aol.edu,349-1107 Non St.,7481 MO
Arthur Duncan,Australia,feugiat@outlook.com,Ap #158-756 Sagittis Av.,614216
Herrod Norton,Sweden,et.malesuada@protonmail.couk,487-7628 Proin Rd.,OE0Q 9FD
Jin Schultz,Costa Rica,donec.egestas@protonmail.com,843-7203 Eleifend Ave,8337 OC
Martin Albert,Chile,curabitur@icloud.edu,3048 Ornare St.,844732
Felix Fox,Colombia,venenatis.lacus@google.ca,471-7708 Et Avenue,A0F 0JK
Kermit Mayer,United Kingdom,iaculis@icloud.org,200-7193 Dapibus Street,325695
MacKenzie Young,Turkey,arcu.vestibulum@aol.com,"P.O. Box 740, 8040 Nec Avenue",35-34
Suki Lynch,Italy,risus.at@icloud.com,"8672 Lacus, St.",2012
Octavius Hancock,Vietnam,placerat.orci.lacus@protonmail.com,Ap #259-3217 Adipiscing St.,570812
Roary Hall,Sweden,a.auctor.non@icloud.com,Ap #232-1902 Nunc St.,376448
Aspen Mccormick,Pakistan,nullam.vitae.diam@icloud.couk,749-1323 Tellus. St.,20851
Hashim Mccoy,Mexico,orci.in@aol.com,518-2348 Elit St.,99210
Vaughan Booker,Colombia,non@protonmail.net,812-6818 At Rd.,72977
Donna Cunningham,India,dolor@hotmail.com,Ap #842-4224 Nullam Ave,236769
Deirdre Jimenez,Norway,accumsan@yahoo.net,139-5947 Nibh. Ave,48650-78536
Indira Velasquez,Australia,lorem.lorem@hotmail.com,724-4532 Egestas St.,65386-947
Malik Woodard,Nigeria,porttitor.vulputate.posuere@outlook.com,602-9638 Morbi St.,84448-151
Ivory Hurst,Austria,sit.amet@aol.org,968-5941 Nunc Avenue,7236
Hu Ramsey,Germany,nascetur.ridiculus.mus@google.org,289-5652 Neque Av.,6402
Amal Burks,Netherlands,sociis.natoque.penatibus@hotmail.couk,Ap #482-6005 Fusce St.,46040
Camden Witt,China,iaculis.nec@hotmail.net,Ap #842-7750 Nulla Rd.,591461
Ayanna Vega,Costa Rica,vulputate.nisi@outlook.com,8808 Pretium Road,4154
Melanie Blevins,Ukraine,feugiat.placerat@google.org,429-2906 Sed Rd.,553664
Sade Mcmahon,Colombia,enim.consequat.purus@hotmail.com,298-3665 A Rd.,17165
Davis Jarvis,United States,luctus@icloud.ca,"P.O. Box 300, 5437 Vel Street",645230
Channing Mckinney,Canada,nunc.nulla.vulputate@icloud.couk,353-2821 Et Av.,72431
Mariam Whitney,Chile,porttitor.vulputate@icloud.org,812-5715 Volutpat. Road,58621-197
Perry Strong,Singapore,arcu.curabitur.ut@hotmail.couk,373-6789 Massa Rd.,204360
Cailin Klein,Spain,enim.suspendisse@outlook.org,Ap #734-8895 Convallis Street,306574
Amity Petty,Poland,mollis@yahoo.org,Ap #628-7564 Sagittis Street,681273
Boris Love,Peru,in@yahoo.com,Ap #262-3100 Proin Road,61111
Aiko Orr,China,convallis.convallis@protonmail.edu,"Ap #661-7654 Cursus, St.",F0 3OR
Ramona Shepherd,Norway,ornare.tortor@google.net,813-828 Arcu. Ave,7732
Karyn Huff,Peru,dictum.magna@outlook.net,676-9850 Bibendum Ave,18137
Abbot Perkins,Chile,ac@aol.com,Ap #648-7723 Ipsum. St.,00452
Ciaran Johnston,Poland,felis@aol.couk,274-3007 Mollis Road,826841
Allen Richmond,Austria,metus.facilisis@icloud.edu,374-5288 Ridiculus Av.,51525
Sean James,Italy,etiam.imperdiet@outlook.couk,356-4090 Luctus. Rd.,262779
Carter Robles,New Zealand,fermentum@google.couk,Ap #405-8242 Sed Rd.,7802
Joan Lynn,Austria,nunc.sed.pede@google.org,7494 Ipsum. Rd.,851543
Halee Medina,France,egestas@outlook.org,"P.O. Box 659, 3594 Fringilla, Av.",148391
Minerva Sheppard,Spain,nunc.interdum.feugiat@outlook.org,283-8898 Gravida. Street,6281
Jillian Mcclure,Turkey,duis@aol.ca,433-6844 Tempus Avenue,88145
Francis Gonzalez,Germany,arcu.curabitur@hotmail.net,995-8719 Euismod Ave,72243
Bert Norton,United Kingdom,nisl.nulla@yahoo.edu,392-8379 Eu St.,214552
Pearl Walters,Mexico,consectetuer@protonmail.ca,"P.O. Box 692, 7909 Eu Ave",151185
Mikayla Mcguire,Ireland,mauris.eu.turpis@outlook.edu,Ap #955-6414 In Street,54-42
Ferris William,Philippines,ligula@yahoo.couk,Ap #222-5218 Tincidunt Ave,757774
Zahir Duncan,Philippines,velit.dui@aol.edu,476-5808 Mauris St.,96-52
Emily Cole,Singapore,cursus@hotmail.net,Ap #822-1331 Porttitor Road,329856
Belle Richard,Chile,mi@icloud.com,Ap #480-8115 Nunc St.,885452
Cheyenne Hunt,Canada,habitant.morbi@protonmail.com,257-7825 Nullam Rd.,185439
Jenette Palmer,Mexico,tincidunt.pede@icloud.couk,7424 Ac St.,1369
Kaseem Stevenson,Costa Rica,et@google.org,910-2084 Et Rd.,38879
Zephania Boyd,Peru,sodales.elit@hotmail.ca,Ap #171-6219 Ullamcorper Street,141233
Keegan Mcneil,Ireland,pellentesque@outlook.net,222-5063 Eu St.,1472 JR
Deanna Justice,Italy,lobortis@icloud.edu,304 Tincidunt Ave,35462480
Joan Lopez,Mexico,vitae.erat.vivamus@google.couk,Ap #644-4413 Vivamus Road,31806
Freya Valencia,United Kingdom,scelerisque@protonmail.edu,535-9196 In Ave,62152
Kuame Russell,Austria,id.blandit.at@icloud.couk,101-6182 Morbi St.,6321 EG
Jessica Harding,New Zealand,metus.in@aol.com,159-7541 Integer Street,7538
Maris Slater,Ireland,dui.quis.accumsan@yahoo.com,332-5069 Quam. St.,8685-1256
Charity Knight,Philippines,vulputate.eu@aol.edu,7069 Pede Rd.,82763-612
Flavia Mullen,Norway,risus.quis@hotmail.com,518-2212 Non Av.,9648
Lydia Walton,Chile,nullam.vitae@protonmail.couk,1674 Dignissim St.,729347
Zachary Padilla,Philippines,conubia.nostra@aol.org,384-3673 Ac Road,75763-685
Anthony Lloyd,Chile,fusce@hotmail.com,"P.O. Box 361, 8915 Massa Road",30411
Amir Farrell,Indonesia,eleifend.nunc@yahoo.org,Ap #867-2451 Egestas. Road,54533-778
Daquan Freeman,Nigeria,id.enim.curabitur@hotmail.org,503-5359 Rutrum. Rd.,6704
Veronica Robinson,Pakistan,neque.morbi@aol.com,587-101 Nunc Av.,3720
Hamilton Riggs,Colombia,dui.fusce@google.edu,"P.O. Box 351, 7752 Ac Av.",36953
Velma Sharpe,Russian Federation,ante.ipsum@outlook.couk,936-7058 Vestibulum Rd.,72717-47476
Barrett Leon,Chile,augue.id@aol.net,"P.O. Box 306, 5230 Dolor, Ave",8654
Lois Barron,France,sed.est.nunc@google.com,715 Arcu Street,67770
Marcia Mcfadden,Norway,et.libero@aol.org,6476 Malesuada Road,6540
Galvin Adams,Indonesia,magna.a@hotmail.org,"P.O. Box 726, 7610 Etiam Ave",76-87
Brenna Drake,Peru,eu.metus.in@google.net,158-5444 Aliquet Road,7267 FN
Eagan Stokes,Philippines,facilisis@hotmail.org,159-5126 Urna Av.,2318 RH
Kay O'brien,Germany,montes.nascetur@yahoo.net,"P.O. Box 315, 6600 Aliquet St.",39195
Levi Ortiz,Costa Rica,nam.interdum.enim@yahoo.edu,142-6158 Sed St.,9377
Yardley Donovan,Sweden,tempus.non.lacinia@aol.org,Ap #888-5486 Aenean Street,6562
Mark Hopkins,Netherlands,sed@google.couk,172-2482 Venenatis Av.,472537
Katell Watts,Ireland,ullamcorper.velit@yahoo.com,424-2387 Risus Road,37616
Amir Hanson,Austria,fermentum@yahoo.org,"Ap #858-2728 Convallis, Avenue",87-86
Ronan Cotton,Australia,et.magnis@aol.net,7189 Malesuada Av.,142929
Kai Shepherd,United Kingdom,adipiscing.ligula@outlook.couk,2964 Lacinia. St.,0423
Lydia Osborne,Belgium,vehicula.pellentesque@google.com,"P.O. Box 585, 7788 Varius Ave",1205
Orlando Berg,Singapore,nulla.tempor@icloud.org,"Ap #634-9814 Mi, Road",33223
